     2.11           N: GPS NAV DATA     G                   RINEX VERSION / TYPE
LEICA GEO OFFICE 8.4                    30-9-20 21:26       PGM / RUN BY / DATE
    18                                                      LEAP SECONDS
                                                            END OF HEADER
30 20  9 30  6  0  0.0-3.111870028079D-04-7.048583938740D-12 0.000000000000D+00
    2.400000000000D+01 6.587500000000D+01 5.302363881299D-09-1.899346697951D+00
    3.144145011902D-06 4.774794797413D-03 6.085261702538D-06 5.153584363937D+03
    2.808000000000D+05 5.587935447693D-08-2.299052017636D+00-7.078051567078D-08
    9.379095470573D-01 2.503125000000D+02-2.808426462829D+00-8.489282166124D-09
    6.028822441273D-10 1.000000000000D+00 2.125000000000D+03 0.000000000000D+00
    2.000000000000D+00 0.000000000000D+00 3.725290298462D-09 2.400000000000D+01
    2.808000000000D+05
30 20  9 30  8  0  0.0-3.112372942269D-04-7.048583938740D-12 0.000000000000D+00
    2.500000000000D+01 6.787500000000D+01 5.255218926692D-09-8.491826614664D-01
    3.553926944733D-06 4.774761735462D-03 5.796551704407D-06 5.153583669662D+03
    2.880000000000D+05 1.415610313416D-07-2.299112939397D+00-1.490116119385D-08
    9.379136110437D-01 2.520937500000D+02-2.808349497246D+00-8.544641438846D-09
    5.521658685836D-10 1.000000000000D+00 2.125000000000D+03 0.000000000000D+00
    2.000000000000D+00 0.000000000000D+00 3.725290298462D-09 2.500000000000D+01
    2.880000000000D+05
32 20  9 30  8  0  0.0 3.523435443640D-04 4.320099833421D-12 0.000000000000D+00
    2.000000000000D+01-3.062500000000D+01 4.119814267511D-09 2.718868192116D+00
   -1.486390829086D-06 4.178799805231D-03 1.180544495583D-05 5.153596353531D+03
    2.880000000000D+05 1.862645149231D-08 2.899171759901D+00-4.842877388000D-08
    9.574610244034D-01 1.485625000000D+02-2.446150858950D+00-7.754608510879D-09
    2.750114545813D-11 1.000000000000D+00 2.125000000000D+03 0.000000000000D+00
    2.000000000000D+00 0.000000000000D+00 4.656612873077D-10 2.000000000000D+01
    2.880000000000D+05
32 20  9 30 10  0  0.0 3.523752093315D-04 4.320099833421D-12 0.000000000000D+00
    2.100000000000D+01-3.790625000000D+01 4.130172204242D-09-2.514080080429D+00
   -1.834705471992D-06 4.179811221547D-03 1.196935772896D-05 5.153594478607D+03
    2.952000000000D+05-3.539025783539D-08 2.899116350416D+00-2.235174179077D-08
    9.574612526186D-01 1.465000000000D+02-2.446161977128D+00-7.710678318062D-09
   -1.500062400683D-11 1.000000000000D+00 2.125000000000D+03 0.000000000000D+00
    2.000000000000D+00 0.000000000000D+00 4.656612873077D-10 2.100000000000D+01
    2.952000000000D+05
